{
  "type": "FeatureCollection",
  "features": [
    {
      "type": "Feature",
      "properties": {
        "norad_id": 34088,
        "name": "IRIDIUM 33 DEB",
        "group": "iridium-33-debris",
        "lat": 84.91486378676572,
        "lon": 158.49416348362342,
        "alt_km": 579.8933109240661,
        "timestamp": "2025-12-27T20:30:59.665352+00:00",
        "meta_object_name": "IRIDIUM 33 DEB",
        "meta_object_id": "1997-051CX",
        "meta_epoch": "2025-12-27T12:35:22.337376",
        "meta_mean_motion": 14.92069086,
        "meta_eccentricity": 0.0007333,
        "meta_inclination": 86.3845,
        "meta_ra_of_asc_node": 23.9259,
        "meta_arg_of_pericenter": 131.6966,
        "meta_mean_anomaly": 348.9416,
        "meta_ephemeris_type": 0,
        "meta_classification_type": "U",
        "meta_norad_cat_id": 34088,
        "meta_element_set_no": 999,
        "meta_rev_at_epoch": 88962,
        "meta_bstar": 0.0025882,
        "meta_mean_motion_dot": 0.00026378,
        "meta_mean_motion_ddot": 0,
        "tle_line1": "1 34088U 97051CX  25361.52456409  .00026378  00000+0  25882-2 0  9999",
        "tle_line2": "2 34088  86.3845  23.9259 0007333 131.6966 348.9416 14.92069086889620"
      },
      "geometry": {
        "type": "Point",
        "coordinates": [
          158.49416348362342,
          84.91486378676572
        ]
      }
    },
    {
      "type": "Feature",
      "properties": {
        "norad_id": 34091,
        "name": "IRIDIUM 33 DEB",
        "group": "iridium-33-debris",
        "lat": 48.999055381710114,
        "lon": -124.31641485399012,
        "alt_km": 623.1692978719511,
        "timestamp": "2025-12-27T20:30:59.665362+00:00",
        "meta_object_name": "IRIDIUM 33 DEB",
        "meta_object_id": "1997-051DA",
        "meta_epoch": "2025-12-27T03:43:50.479104",
        "meta_mean_motion": 14.82901423,
        "meta_eccentricity": 0.00343023,
        "meta_inclination": 86.3407,
        "meta_ra_of_asc_node": 60.2263,
        "meta_arg_of_pericenter": 241.6734,
        "meta_mean_anomaly": 118.1028,
        "meta_ephemeris_type": 0,
        "meta_classification_type": "U",
        "meta_norad_cat_id": 34091,
        "meta_element_set_no": 999,
        "meta_rev_at_epoch": 88080,
        "meta_bstar": 0.0057592703,
        "meta_mean_motion_dot": 0.00047447,
        "meta_mean_motion_ddot": 0,
        "tle_line1": "1 34091U 97051DA  25361.15544536  .00047447  00000+0  57593-2 0  9995",
        "tle_line2": "2 34091  86.3407  60.2263 0034302 241.6734 118.1028 14.82901423880804"
      },
      "geometry": {
        "type": "Point",
        "coordinates": [
          -124.31641485399012,
          48.999055381710114
        ]
      }
    },
    {
      "type": "Feature",
      "properties": {
        "norad_id": 34097,
        "name": "IRIDIUM 33 DEB",
        "group": "iridium-33-debris",
        "lat": -42.988443693793876,
        "lon": -8.815880123535115,
        "alt_km": 724.1926088605196,
        "timestamp": "2025-12-27T20:30:59.665372+00:00",
        "meta_object_name": "IRIDIUM 33 DEB",
        "meta_object_id": "1997-051DG",
        "meta_epoch": "2025-12-26T22:57:25.330752",
        "meta_mean_motion": 14.34897502,
        "meta_eccentricity": 0.0081165,
        "meta_inclination": 86.2009,
        "meta_ra_of_asc_node": 355.1315,
        "meta_arg_of_pericenter": 315.5596,
        "meta_mean_anomaly": 43.9106,
        "meta_ephemeris_type": 0,
        "meta_classification_type": "U",
        "meta_norad_cat_id": 34097,
        "meta_element_set_no": 999,
        "meta_rev_at_epoch": 87323,
        "meta_bstar": 0.0019362,
        "meta_mean_motion_dot": 5.728e-05,
        "meta_mean_motion_ddot": 0,
        "tle_line1": "1 34097U 97051DG  25360.95654318  .00005728  00000+0  19362-2 0  9996",
        "tle_line2": "2 34097  86.2009 355.1315 0081165 315.5596  43.9106 14.34897502873237"
      },
      "geometry": {
        "type": "Point",
        "coordinates": [
          -8.815880123535115,
          -42.988443693793876
        ]
      }
    },
    {
      "type": "Feature",
      "properties": {
        "norad_id": 34145,
        "name": "IRIDIUM 33 DEB",
        "group": "iridium-33-debris",
        "lat": -84.8396972499199,
        "lon": -81.38659397962579,
        "alt_km": 784.4456161700946,
        "timestamp": "2025-12-27T20:30:59.665383+00:00",
        "meta_object_name": "IRIDIUM 33 DEB",
        "meta_object_id": "1997-051DY",
        "meta_epoch": "2025-12-27T09:15:44.885088",
        "meta_mean_motion": 14.42402475,
        "meta_eccentricity": 0.0055366,
        "meta_inclination": 86.2126,
        "meta_ra_of_asc_node": 326.0035,
        "meta_arg_of_pericenter": 47.3344,
        "meta_mean_anomaly": 313.2501,
        "meta_ephemeris_type": 0,
        "meta_classification_type": "U",
        "meta_norad_cat_id": 34145,
        "meta_element_set_no": 999,
        "meta_rev_at_epoch": 87849,
        "meta_bstar": 0.0015408,
        "meta_mean_motion_dot": 5.21e-05,
        "meta_mean_motion_ddot": 0,
        "tle_line1": "1 34145U 97051DY  25361.38593617  .00005210  00000+0  15408-2 0  9995",
        "tle_line2": "2 34145  86.2126 326.0035 0055366  47.3344 313.2501 14.42402475878497"
      },
      "geometry": {
        "type": "Point",
        "coordinates": [
          -81.38659397962579,
          -84.8396972499199
        ]
      }
    },
    {
      "type": "Feature",
      "properties": {
        "norad_id": 34146,
        "name": "IRIDIUM 33 DEB",
        "group": "iridium-33-debris",
        "lat": -80.3842651978854,
        "lon": -39.43174673723281,
        "alt_km": 742.1261748556963,
        "timestamp": "2025-12-27T20:30:59.665394+00:00",
        "meta_object_name": "IRIDIUM 33 DEB",
        "meta_object_id": "1997-051DZ",
        "meta_epoch": "2025-12-27T11:32:41.786016",
        "meta_mean_motion": 14.49145613,
        "meta_eccentricity": 0.0027213,
        "meta_inclination": 86.2844,
        "meta_ra_of_asc_node": 343.2878,
        "meta_arg_of_pericenter": 171.1363,
        "meta_mean_anomaly": 318.529,
        "meta_ephemeris_type": 0,
        "meta_classification_type": "U",
        "meta_norad_cat_id": 34146,
        "meta_element_set_no": 999,
        "meta_rev_at_epoch": 88320,
        "meta_bstar": 0.00099857,
        "meta_mean_motion_dot": 3.835e-05,
        "meta_mean_motion_ddot": 0,
        "tle_line1": "1 34146U 97051DZ  25361.48103919  .00003835  00000+0  99857-3 0  9991",
        "tle_line2": "2 34146  86.2844 343.2878 0027213 171.1363 318.5290 14.49145613883201"
      },
      "geometry": {
        "type": "Point",
        "coordinates": [
          -39.43174673723281,
          -80.3842651978854
        ]
      }
    },
    {
      "type": "Feature",
      "properties": {
        "norad_id": 34159,
        "name": "IRIDIUM 33 DEB",
        "group": "iridium-33-debris",
        "lat": 41.83846887679366,
        "lon": -141.48163380890614,
        "alt_km": 762.1814307524919,
        "timestamp": "2025-12-27T20:30:59.665404+00:00",
        "meta_object_name": "IRIDIUM 33 DEB",
        "meta_object_id": "1997-051EN",
        "meta_epoch": "2025-12-27T09:51:29.456640",
        "meta_mean_motion": 14.38529868,
        "meta_eccentricity": 0.0026334,
        "meta_inclination": 86.3493,
        "meta_ra_of_asc_node": 41.9846,
        "meta_arg_of_pericenter": 236.0798,
        "meta_mean_anomaly": 123.7896,
        "meta_ephemeris_type": 0,
        "meta_classification_type": "U",
        "meta_norad_cat_id": 34159,
        "meta_element_set_no": 999,
        "meta_rev_at_epoch": 88170,
        "meta_bstar": 0.00043614,
        "meta_mean_motion_dot": 1.357e-05,
        "meta_mean_motion_ddot": 0,
        "tle_line1": "1 34159U 97051EN  25361.41075760  .00001357  00000+0  43614-3 0  9997",
        "tle_line2": "2 34159  86.3493  41.9846 0026334 236.0798 123.7896 14.38529868881706"
      },
      "geometry": {
        "type": "Point",
        "coordinates": [
          -141.48163380890614,
          41.83846887679366
        ]
      }
    },
    {
      "type": "Feature",
      "properties": {
        "norad_id": 34350,
        "name": "IRIDIUM 33 DEB",
        "group": "iridium-33-debris",
        "lat": -1.9358096759892394,
        "lon": 176.3722391787812,
        "alt_km": 744.7710863491911,
        "timestamp": "2025-12-27T20:30:59.665415+00:00",
        "meta_object_name": "IRIDIUM 33 DEB",
        "meta_object_id": "1997-051ES",
        "meta_epoch": "2025-12-27T11:56:39.334272",
        "meta_mean_motion": 14.45422738,
        "meta_eccentricity": 0.0023548,
        "meta_inclination": 86.3275,
        "meta_ra_of_asc_node": 356.4028,
        "meta_arg_of_pericenter": 90.0616,
        "meta_mean_anomaly": 34.0808,
        "meta_ephemeris_type": 0,
        "meta_classification_type": "U",
        "meta_norad_cat_id": 34350,
        "meta_element_set_no": 999,
        "meta_rev_at_epoch": 88506,
        "meta_bstar": 0.00040811,
        "meta_mean_motion_dot": 1.461e-05,
        "meta_mean_motion_ddot": 0,
        "tle_line1": "1 34350U 97051ES  25361.49767748  .00001461  00000+0  40811-3 0  9994",
        "tle_line2": "2 34350  86.3275 356.4028 0023548  90.0616  34.0808 14.45422738885060"
      },
      "geometry": {
        "type": "Point",
        "coordinates": [
          176.3722391787812,
          -1.9358096759892394
        ]
      }
    }
  ]
}